      2.10          N: GNSS NAV DATA                        RINEX VERSION / TYPE
fic2rin                                 11/04/2020 00:17:24 PGM / RUN BY / DATE
                                                            END OF HEADER
22 20 11  3  1 59 44.0-7.352237589657e-04 5.115907697473e-12 0.000000000000e+00
    5.000000000000e+00 1.659375000000e+01 5.230932175036e-09-9.014683937542e-01
    9.499490261078e-07 6.712272414006e-03 7.662922143936e-06 5.153686332703e+03
    1.799840000000e+05-9.499490261078e-08 1.141498178564e+00 1.862645149231e-08
    9.321081932705e-01 2.183437500000e+02-1.075365762809e+00-8.377848971038e-09
    5.893102614235e-10 1.000000000000e+00 2.130000000000e+03 0.000000000000e+00
    2.400000000000e+00 0.000000000000e+00-1.816079020500e-08 5.000000000000e+00
    1.728000000000e+05 4.000000000000e+00
 2 20 11  3  2  0  0.0-5.376986227930e-04-4.774847184308e-12 0.000000000000e+00
    8.000000000000e+00-7.221875000000e+01 4.206246635627e-09-1.867685666045e+00
   -3.641471266747e-06 1.999148586765e-02 1.043267548084e-05 5.153547887802e+03
    1.800000000000e+05 3.539025783539e-07 1.151062931534e-01 3.688037395477e-07
    9.612773387968e-01 1.760000000000e+02-1.589197921272e+00-7.610317000250e-09
   -3.643008888800e-11 1.000000000000e+00 2.130000000000e+03 0.000000000000e+00
    2.400000000000e+00 0.000000000000e+00-1.769512891769e-08 8.000000000000e+00
    1.728000000000e+05 4.000000000000e+00
 1 20 11  3  2  0  0.0 8.110408671200e-04-3.183231456205e-12 0.000000000000e+00
    6.200000000000e+01-8.134375000000e+01 3.614436270064e-09-2.075142478242e+00
   -4.149973392487e-06 1.010834833141e-02 1.063197851181e-05 5.153700914383e+03
    1.800000000000e+05 5.960464477539e-08 1.946153392415e-01-1.229345798492e-07
    9.823986515900e-01 1.856562500000e+02 8.271544755155e-01-7.376378684352e-09
    1.425059359442e-10 1.000000000000e+00 2.130000000000e+03 0.000000000000e+00
    2.400000000000e+00 0.000000000000e+00 5.122274160385e-09 6.200000000000e+01
    1.728000000000e+05 4.000000000000e+00
 5 20 11  3  2  0  0.0-2.493988722563e-05-9.094947017729e-13 0.000000000000e+00
    7.700000000000e+01 2.481250000000e+01 4.773055959796e-09 7.945529423536e-01
    1.423060894012e-06 6.098988582380e-03 7.422640919685e-06 5.153753602982e+03
    1.800000000000e+05-1.452863216400e-07 1.199602702622e+00 1.490116119385e-08
    9.537475341330e-01 2.343750000000e+02 8.905589879279e-01-8.136053184987e-09
    4.414469594664e-10 1.000000000000e+00 2.130000000000e+03 0.000000000000e+00
    2.400000000000e+00 0.000000000000e+00-1.117587089539e-08 7.700000000000e+01
    1.728000000000e+05 4.000000000000e+00
 3 20 11  3  2  0  0.0-3.432673402131e-04-1.011812855722e-11 0.000000000000e+00
    9.200000000000e+01 1.578125000000e+01 4.408040755448e-09 3.017744683213e+00
    8.586794137955e-07 3.275585710071e-03 7.312744855881e-06 5.153712251663e+03
    1.800000000000e+05 3.166496753693e-08 1.233695699784e+00-1.676380634308e-08
    9.668033304394e-01 2.405937500000e+02 8.972480564973e-01-7.846398262554e-09
    5.128785063056e-10 1.000000000000e+00 2.130000000000e+03 0.000000000000e+00
    2.400000000000e+00 0.000000000000e+00 1.862645149231e-09 9.200000000000e+01
    1.728000000000e+05 4.000000000000e+00
 7 20 11  3  2  0  0.0-4.064720124006e-04-7.730704965070e-12 0.000000000000e+00
    7.400000000000e+01 5.496875000000e+01 4.413755279195e-09-2.750323103254e+00
    2.618879079819e-06 1.423059124500e-02 1.129321753979e-05 5.153640033722e+03
    1.800000000000e+05 7.264316082001e-08-2.945585131284e+00-2.104789018631e-07
    9.529429979466e-01 1.575937500000e+02-2.361372207854e+00-7.669962341861e-09
   -1.296482575132e-10 1.000000000000e+00 2.130000000000e+03 0.000000000000e+00
    2.400000000000e+00 0.000000000000e+00-1.117587089539e-08 7.400000000000e+01
    1.728000000000e+05 4.000000000000e+00
 4 20 11  3  2  0  0.0-1.515983603895e-04-3.751665644813e-12 0.000000000000e+00
    3.800000000000e+01-2.234375000000e+01 4.766984278315e-09-4.419664116865e-01
   -1.145526766777e-06 8.874785853550e-04 6.346032023430e-06 5.153609392166e+03
    1.800000000000e+05 1.676380634308e-08 2.313802042777e+00 7.450580596924e-09
    9.600637692525e-01 2.551562500000e+02-3.005177538118e+00-8.102123200238e-09
   -3.010839699273e-10 1.000000000000e+00 2.130000000000e+03 0.000000000000e+00
    2.400000000000e+00 0.000000000000e+00-4.190951585770e-09 2.940000000000e+02
    1.728000000000e+05 4.000000000000e+00
29 20 11  3  2  0  0.0-2.285973168910e-04-7.730704965070e-12 0.000000000000e+00
    2.700000000000e+01-9.025000000000e+01 4.109814047394e-09 1.199517631010e-01
   -4.764646291733e-06 1.509394496679e-03 3.378838300705e-06 5.153729349136e+03
    1.800000000000e+05-5.960464477539e-08-7.897044075927e-01 3.725290298462e-09
    9.850868264661e-01 3.265312500000e+02 2.273176276676e+00-8.087479733136e-09
   -3.435857402966e-10 1.000000000000e+00 2.130000000000e+03 0.000000000000e+00
    2.400000000000e+00 0.000000000000e+00-1.024454832077e-08 2.700000000000e+01
    1.728000000000e+05 4.000000000000e+00
16 20 11  3  2  0  0.0-2.311086282134e-04-5.229594535194e-12 0.000000000000e+00
    2.700000000000e+01 9.856250000000e+01 4.427327273095e-09 1.000851802226e+00
    5.377456545830e-06 1.166502793785e-02 3.863126039505e-06 5.153600786209e+03
    1.800000000000e+05-2.793967723846e-08-1.818456588439e+00 1.098960638046e-07
    9.761944774583e-01 3.119687500000e+02 6.296466166118e-01-8.371420131822e-09
    1.082187934614e-10 1.000000000000e+00 2.130000000000e+03 0.000000000000e+00
    2.400000000000e+00 0.000000000000e+00-1.071020960808e-08 2.700000000000e+01
    1.728000000000e+05 4.000000000000e+00
15 20 11  3  2  0  0.0-1.926417462528e-04 2.614797267597e-12 0.000000000000e+00
    2.500000000000e+01-2.184375000000e+01 5.638449149754e-09-8.208884521333e-01
   -8.344650268555e-07 1.298857678194e-02 5.321577191353e-06 5.153760900497e+03
    1.800000000000e+05 5.960464477539e-08 2.170960715856e+00 2.514570951462e-07
    9.283036729227e-01 2.576250000000e+02 9.418489440633e-01-8.682504518307e-09
   -2.371527355062e-10 1.000000000000e+00 2.130000000000e+03 0.000000000000e+00
    2.400000000000e+00 0.000000000000e+00-1.071020960808e-08 2.500000000000e+01
    1.728000000000e+05 4.000000000000e+00
13 20 11  3  2  0  0.0 6.101001054049e-05 3.865352482535e-12 0.000000000000e+00
    2.500000000000e+01-2.468750000000e+01 4.586262464812e-09-5.589122467899e-01
   -1.214444637299e-06 4.742719582282e-03 7.001683115959e-06 5.153683450699e+03
    1.800000000000e+05-2.607703208923e-08 2.410002056659e+00 5.587935447693e-08
    9.679308262727e-01 2.499687500000e+02 1.049174836149e+00-8.042477858627e-09
   -3.900162457421e-10 1.000000000000e+00 2.130000000000e+03 0.000000000000e+00
    2.400000000000e+00 0.000000000000e+00-1.164153218269e-08 2.500000000000e+01
    1.728000000000e+05 4.000000000000e+00
 9 20 11  3  2  0  0.0-3.086035139859e-04-5.002220859751e-12 0.000000000000e+00
    7.500000000000e+01-2.203125000000e+01 4.964849663060e-09 5.359637420012e-01
   -1.246109604836e-06 1.940964139067e-03 5.945563316345e-06 5.153619091034e+03
    1.800000000000e+05-9.313225746155e-09 2.264619810734e+00 0.000000000000e+00
    9.527984265303e-01 2.583750000000e+02 1.759833518438e+00-8.246414924853e-09
   -2.775115594704e-10 1.000000000000e+00 2.130000000000e+03 0.000000000000e+00
    2.400000000000e+00 0.000000000000e+00 1.396983861923e-09 7.500000000000e+01
    1.728000000000e+05 4.000000000000e+00
10 20 11  3  2  0  0.0-4.952936433256e-04-9.208633855451e-12 0.000000000000e+00
    8.700000000000e+01 2.109375000000e+01 4.495187242592e-09 2.219374114229e+00
    1.130625605583e-06 6.073219468817e-03 7.418915629387e-06 5.153663776398e+03
    1.800000000000e+05-1.378357410431e-07 1.230721151379e+00-3.725290298462e-09
    9.667220755805e-01 2.389375000000e+02-2.661473794826e+00-7.921044229001e-09
    5.482371219910e-10 1.000000000000e+00 2.130000000000e+03 0.000000000000e+00
    2.400000000000e+00 0.000000000000e+00 2.328306436539e-09 8.700000000000e+01
    1.728000000000e+05 4.000000000000e+00
 6 20 11  3  2  0  0.0 7.534399628639e-07-1.932676241267e-12 0.000000000000e+00
    1.890000000000e+02-7.112500000000e+01 3.746941789451e-09-1.659166851393e+00
   -3.730878233910e-06 1.929049496539e-03 1.033395528793e-05 5.153650203705e+03
    1.800000000000e+05-1.117587089539e-08 1.863699247926e-01 2.793967723846e-08
    9.819174978337e-01 1.932812500000e+02-1.158712016686e+00-7.622103205479e-09
    6.143113028173e-11 1.000000000000e+00 2.130000000000e+03 0.000000000000e+00
    2.400000000000e+00 0.000000000000e+00 4.190951585770e-09 1.890000000000e+02
    1.728000000000e+05 4.000000000000e+00
31 20 11  3  2  0  0.0-7.898546755314e-05-2.387423592154e-12 0.000000000000e+00
    6.300000000000e+01 6.565625000000e+01 4.349466887040e-09-3.115191090133e+00
    3.417953848839e-06 9.828898473643e-03 1.188367605209e-05 5.153694137573e+03
    1.800000000000e+05-1.452863216400e-07-2.929381338617e+00-7.636845111847e-08
    9.573239621456e-01 1.490000000000e+02 1.882912731216e-01-7.642818354062e-09
   -2.128660095809e-10 1.000000000000e+00 2.130000000000e+03 0.000000000000e+00
    2.400000000000e+00 0.000000000000e+00-1.303851604462e-08 6.300000000000e+01
    1.728000000000e+05 4.000000000000e+00
27 20 11  3  2  0  0.0-5.077570676804e-06-8.412825991400e-12 0.000000000000e+00
    6.700000000000e+01-7.359375000000e+01 4.436256216450e-09 1.097926674767e-01
   -3.825873136520e-06 8.477600873448e-03 2.341344952583e-06 5.153673913956e+03
    1.800000000000e+05 2.793967723846e-08-8.611659588817e-01 1.210719347000e-07
    9.772737599005e-01 3.395312500000e+02 5.691001019207e-01-8.398564119621e-09
   -3.585863651329e-10 1.000000000000e+00 2.130000000000e+03 0.000000000000e+00
    2.400000000000e+00 0.000000000000e+00 1.862645149231e-09 6.700000000000e+01
    1.728000000000e+05 4.000000000000e+00
